{"type": "FeatureCollection", "features": [ {"type": "Feature", "properties": {"norad_id": 67101, "name": "STARLINK-36200", "group": "last-30-days", "lat": -29.708868695324313, "lon": 46.59708476763261, "alt_km": 331.80676212960407, "timestamp": "2025-12-25T03:55:54.957108+00:00", "meta": {"OBJECT_NAME": "STARLINK-36200", "OBJECT_ID": "2025-298AC", "EPOCH": "2025-12-24T20:00:01.000224", "MEAN_MOTION": 15.8222018, "ECCENTRICITY": 0.0003804, "INCLINATION": 69.9964, "RA_OF_ASC_NODE": 215.5443, "ARG_OF_PERICENTER": 270.9677, "MEAN_ANOMALY": 219.6897, "EPHEMERIS_TYPE": 0, "CLASSIFICATION_TYPE": "U", "NORAD_CAT_ID": 67101, "ELEMENT_SET_NO": 999, "REV_AT_EPOCH": 292, "BSTAR": -0.0096194, "MEAN_MOTION_DOT": -0.01719064, "MEAN_MOTION_DDOT": 0}, "tle": {"line1": "1 67101U 25298AC  25358.83334491 -.01719064  00000+0 -96194-2 0  9999", "line2": "2 67101  69.9964 215.5443 0003804 270.9677 219.6897 15.82220180  2921"}}, "geometry": {"type": "Point", "coordinates": [46.59708476763261, -29.708868695324313]}}, {"type": "Feature", "properties": {"norad_id": 67102, "name": "STARLINK-36255", "group": "last-30-days", "lat": 42.364500705256795, "lon": -41.28301534318924, "alt_km": 313.4071162710525, "timestamp": "2025-12-25T03:55:54.957120+00:00", "meta": {"OBJECT_NAME": "STARLINK-36255", "OBJECT_ID": "2025-299A", "EPOCH": "2025-12-24T20:00:01.000224", "MEAN_MOTION": 15.85424814, "ECCENTRICITY": 0.0001724, "INCLINATION": 42.9969, "RA_OF_ASC_NODE": 242.566, "ARG_OF_PERICENTER": 264.8371, "MEAN_ANOMALY": 88.6901, "EPHEMERIS_TYPE": 0, "CLASSIFICATION_TYPE": "U", "NORAD_CAT_ID": 67102, "ELEMENT_SET_NO": 999, "REV_AT_EPOCH": 275, "BSTAR": -0.0084306, "MEAN_MOTION_DOT": -0.01796758, "MEAN_MOTION_DDOT": 0}, "tle": {"line1": "1 67102U 25299A   25358.83334491 -.01796758  00000+0 -84306-2 0  9998", "line2": "2 67102  42.9969 242.5660 0001724 264.8371  88.6901 15.85424814  2755"}}, "geometry": {"type": "Point", "coordinates": [-41.28301534318924, 42.364500705256795]}}, {"type": "Feature", "properties": {"norad_id": 67103, "name": "STARLINK-36256", "group": "last-30-days", "lat": 42.53351369381088, "lon": -39.53007628500218, "alt_km": 313.3032980192238, "timestamp": "2025-12-25T03:55:54.957131+00:00", "meta": {"OBJECT_NAME": "STARLINK-36256", "OBJECT_ID": "2025-299B", "EPOCH": "2025-12-24T20:00:01.000224", "MEAN_MOTION": 15.8543667, "ECCENTRICITY": 0.0001697, "INCLINATION": 42.9969, "RA_OF_ASC_NODE": 242.5628, "ARG_OF_PERICENTER": 267.4807, "MEAN_ANOMALY": 87.3322, "EPHEMERIS_TYPE": 0, "CLASSIFICATION_TYPE": "U", "NORAD_CAT_ID": 67103, "ELEMENT_SET_NO": 999, "REV_AT_EPOCH": 275, "BSTAR": -0.0083778, "MEAN_MOTION_DOT": -0.01788004, "MEAN_MOTION_DDOT": 0}, "tle": {"line1": "1 67103U 25299B   25358.83334491 -.01788004  00000+0 -83778-2 0  9996", "line2": "2 67103  42.9969 242.5628 0001697 267.4807  87.3322 15.85436670  2758"}}, "geometry": {"type": "Point", "coordinates": [-39.53007628500218, 42.53351369381088]}}, {"type": "Feature", "properties": {"norad_id": 67104, "name": "STARLINK-36258", "group": "last-30-days", "lat": 42.692149648537644, "lon": -37.53742206185882, "alt_km": 313.27504280177436, "timestamp": "2025-12-25T03:55:54.957141+00:00", "meta": {"OBJECT_NAME": "STARLINK-36258", "OBJECT_ID": "2025-299C", "EPOCH": "2025-12-24T20:00:01.000224", "MEAN_MOTION": 15.8545298, "ECCENTRICITY": 0.0001754, "INCLINATION": 42.9969, "RA_OF_ASC_NODE": 242.5591, "ARG_OF_PERICENTER": 269.8204, "MEAN_ANOMALY": 86.4496, "EPHEMERIS_TYPE": 0, "CLASSIFICATION_TYPE": "U", "NORAD_CAT_ID": 67104, "ELEMENT_SET_NO": 999, "REV_AT_EPOCH": 275, "BSTAR": -0.0083866, "MEAN_MOTION_DOT": -0.01790902, "MEAN_MOTION_DDOT": 0}, "tle": {"line1": "1 67104U 25299C   25358.83334491 -.01790902  00000+0 -83866-2 0  9995", "line2": "2 67104  42.9969 242.5591 0001754 269.8204  86.4496 15.85452980  2753"}}, "geometry": {"type": "Point", "coordinates": [-37.53742206185882, 42.692149648537644]}}, {"type": "Feature", "properties": {"norad_id": 67105, "name": "STARLINK-36261", "group": "last-30-days", "lat": 42.79791074096193, "lon": -35.86514206399279, "alt_km": 313.1748321745308, "timestamp": "2025-12-25T03:55:54.957151+00:00", "meta": {"OBJECT_NAME": "STARLINK-36261", "OBJECT_ID": "2025-299D", "EPOCH": "2025-12-24T20:00:01.000224", "MEAN_MOTION": 15.85477888, "ECCENTRICITY": 0.0001711, "INCLINATION": 42.9968, "RA_OF_ASC_NODE": 242.5561, "ARG_OF_PERICENTER": 268.2181, "MEAN_ANOMALY": 89.258, "EPHEMERIS_TYPE": 0, "CLASSIFICATION_TYPE": "U", "NORAD_CAT_ID": 67105, "ELEMENT_SET_NO": 999, "REV_AT_EPOCH": 275, "BSTAR": -0.0083914, "MEAN_MOTION_DOT": -0.01793607, "MEAN_MOTION_DDOT": 0}, "tle": {"line1": "1 67105U 25299D   25358.83334491 -.01793607  00000+0 -83914-2 0  9995", "line2": "2 67105  42.9968 242.5561 0001711 268.2181  89.2580 15.85477888  2759"}}, "geometry": {"type": "Point", "coordinates": [-35.86514206399279, 42.79791074096193]}}, {"type": "Feature", "properties": {"norad_id": 67106, "name": "STARLINK-36259", "group": "last-30-days", "lat": 42.95989949444076, "lon": -31.407713303027993, "alt_km": 313.10946590452477, "timestamp": "2025-12-25T03:55:54.957163+00:00", "meta": {"OBJECT_NAME": "STARLINK-36259", "OBJECT_ID": "2025-299E", "EPOCH": "2025-12-24T20:00:01.000224", "MEAN_MOTION": 15.85498079, "ECCENTRICITY": 0.0001731, "INCLINATION": 42.997, "RA_OF_ASC_NODE": 242.5481, "ARG_OF_PERICENTER": 261.7789, "MEAN_ANOMALY": 98.9494, "EPHEMERIS_TYPE": 0, "CLASSIFICATION_TYPE": "U", "NORAD_CAT_ID": 67106, "ELEMENT_SET_NO": 999, "REV_AT_EPOCH": 275, "BSTAR": -0.0083899, "MEAN_MOTION_DOT": -0.0179487, "MEAN_MOTION_DDOT": 0}, "tle": {"line1": "1 67106U 25299E   25358.83334491 -.01794870  00000+0 -83899-2 0  9991", "line2": "2 67106  42.9970 242.5481 0001731 261.7789  98.9494 15.85498079  2754"}}, "geometry": {"type": "Point", "coordinates": [-31.407713303027993, 42.95989949444076]}}, {"type": "Feature", "properties": {"norad_id": 67107, "name": "STARLINK-36196", "group": "last-30-days", "lat": 42.89663809287762, "lon": -33.74974891588602, "alt_km": 313.12220798899216, "timestamp": "2025-12-25T03:55:54.957173+00:00", "meta": {"OBJECT_NAME": "STARLINK-36196", "OBJECT_ID": "2025-299F", "EPOCH": "2025-12-24T20:00:01.000224", "MEAN_MOTION": 15.85488717, "ECCENTRICITY": 0.0001692, "INCLINATION": 42.997, "RA_OF_ASC_NODE": 242.5524, "ARG_OF_PERICENTER": 267.2961, "MEAN_ANOMALY": 91.7231, "EPHEMERIS_TYPE": 0, "CLASSIFICATION_TYPE": "U", "NORAD_CAT_ID": 67107, "ELEMENT_SET_NO": 999, "REV_AT_EPOCH": 275, "BSTAR": -0.0083907, "MEAN_MOTION_DOT": -0.01794272, "MEAN_MOTION_DDOT": 0}, "tle": {"line1": "1 67107U 25299F   25358.83334491 -.01794272  00000+0 -83907-2 0  9998", "line2": "2 67107  42.9970 242.5524 0001692 267.2961  91.7231 15.85488717  2750"}}, "geometry": {"type": "Point", "coordinates": [-33.74974891588602, 42.89663809287762]}}, {"type": "Feature", "properties": {"norad_id": 67108, "name": "STARLINK-36208", "group": "last-30-days", "lat": 42.97520424737187, "lon": -29.073332591552706, "alt_km": 313.01951981250477, "timestamp": "2025-12-25T03:55:54.957200+00:00", "meta": {"OBJECT_NAME": "STARLINK-36208", "OBJECT_ID": "2025-299G", "EPOCH": "2025-12-24T20:00:01.000224", "MEAN_MOTION": 15.85495462, "ECCENTRICITY": 0.0001638, "INCLINATION": 42.997, "RA_OF_ASC_NODE": 242.5436, "ARG_OF_PERICENTER": 262.1164, "MEAN_ANOMALY": 100.3187, "EPHEMERIS_TYPE": 0, "CLASSIFICATION_TYPE": "U", "NORAD_CAT_ID": 67108, "ELEMENT_SET_NO": 999, "REV_AT_EPOCH": 275, "BSTAR": -0.008329, "MEAN_MOTION_DOT": -0.01783446, "MEAN_MOTION_DDOT": 0}, "tle": {"line1": "1 67108U 25299G   25358.83334491 -.01783446  00000+0 -83290-2 0  9995", "line2": "2 67108  42.9970 242.5436 0001638 262.1164 100.3187 15.85495462  2754"}}, "geometry": {"type": "Point", "coordinates": [-29.073332591552706, 42.97520424737187]}}, {"type": "Feature", "properties": {"norad_id": 67109, "name": "STARLINK-35764", "group": "last-30-days", "lat": 42.938271210881524, "lon": -26.55366771412382, "alt_km": 313.0398535608447, "timestamp": "2025-12-25T03:55:54.957216+00:00", "meta": {"OBJECT_NAME": "STARLINK-35764", "OBJECT_ID": "2025-299H", "EPOCH": "2025-12-24T20:00:01.000224", "MEAN_MOTION": 15.85506758, "ECCENTRICITY": 0.0001681, "INCLINATION": 42.997, "RA_OF_ASC_NODE": 242.5389, "ARG_OF_PERICENTER": 263.1158, "MEAN_ANOMALY": 101.1554, "EPHEMERIS_TYPE": 0, "CLASSIFICATION_TYPE": "U", "NORAD_CAT_ID": 67109, "ELEMENT_SET_NO": 999, "REV_AT_EPOCH": 264, "BSTAR": -0.0083672, "MEAN_MOTION_DOT": -0.0179133, "MEAN_MOTION_DDOT": 0}, "tle": {"line1": "1 67109U 25299H   25358.83334491 -.01791330  00000+0 -83672-2 0  9991", "line2": "2 67109  42.9970 242.5389 0001681 263.1158 101.1554 15.85506758  2640"}}, "geometry": {"type": "Point", "coordinates": [-26.55366771412382, 42.938271210881524]}}, {"type": "Feature", "properties": {"norad_id": 67110, "name": "STARLINK-35781", "group": "last-30-days", "lat": 42.710250777793526, "lon": -21.70073526005209, "alt_km": 313.09427045134, "timestamp": "2025-12-25T03:55:54.957227+00:00", "meta": {"OBJECT_NAME": "STARLINK-35781", "OBJECT_ID": "2025-299J", "EPOCH": "2025-12-24T20:00:01.000224", "MEAN_MOTION": 15.85517375, "ECCENTRICITY": 0.0001731, "INCLINATION": 42.9971, "RA_OF_ASC_NODE": 242.53, "ARG_OF_PERICENTER": 268.6348, "MEAN_ANOMALY": 99.1921, "EPHEMERIS_TYPE": 0, "CLASSIFICATION_TYPE": "U", "NORAD_CAT_ID": 67110, "ELEMENT_SET_NO": 999, "REV_AT_EPOCH": 270, "BSTAR": -0.0083811, "MEAN_MOTION_DOT": -0.01794734, "MEAN_MOTION_DDOT": 0}, "tle": {"line1": "1 67110U 25299J   25358.83334491 -.01794734  00000+0 -83811-2 0  9999", "line2": "2 67110  42.9971 242.5300 0001731 268.6348  99.1921 15.85517375  2701"}}, "geometry": {"type": "Point", "coordinates": [-21.70073526005209, 42.710250777793526]}}]}